CCSDS_OMM_VERS = 2.0
CREATION_DATE  = 
ORIGINATOR     = 

OBJECT_NAME    = H-2A R/B
OBJECT_ID      = 2006-002B
CENTER_NAME    = EARTH
REF_FRAME      = TEME
TIME_SYSTEM    = UTC
MEAN_ELEMENT_THEORY = SGP/SGP4

EPOCH          = 2026-03-09T22:32:18.942432
MEAN_MOTION    = 15.16426804
ECCENTRICITY   = .0051895
INCLINATION    = 98.2413
RA_OF_ASC_NODE = 215.9838
ARG_OF_PERICENTER = 240.1322
MEAN_ANOMALY   = 119.4746

EPHEMERIS_TYPE = 0
CLASSIFICATION_TYPE = U
NORAD_CAT_ID   = 28932
ELEMENT_SET_NO = 999
REV_AT_EPOCH   = 9447
BSTAR          = .57793E-3
MEAN_MOTION_DOT = .11556E-3
MEAN_MOTION_DDOT = 0

CCSDS_OMM_VERS = 2.0
CREATION_DATE  = 
ORIGINATOR     = 

OBJECT_NAME    = RESURS-DK 1
OBJECT_ID      = 2006-021A
CENTER_NAME    = EARTH
REF_FRAME      = TEME
TIME_SYSTEM    = UTC
MEAN_ELEMENT_THEORY = SGP/SGP4

EPOCH          = 2026-03-09T20:47:10.198464
MEAN_MOTION    = 15.12746011
ECCENTRICITY   = .00018726
INCLINATION    = 69.9317
RA_OF_ASC_NODE = 236.5664
ARG_OF_PERICENTER = 163.0233
MEAN_ANOMALY   = 197.0996

EPHEMERIS_TYPE = 0
CLASSIFICATION_TYPE = U
NORAD_CAT_ID   = 29228
ELEMENT_SET_NO = 999
REV_AT_EPOCH   = 8755
BSTAR          = .24045463E-3
MEAN_MOTION_DOT = .4119E-4
MEAN_MOTION_DDOT = 0

CCSDS_OMM_VERS = 2.0
CREATION_DATE  = 
ORIGINATOR     = 

OBJECT_NAME    = CZ-4B R/B
OBJECT_ID      = 2006-046C
CENTER_NAME    = EARTH
REF_FRAME      = TEME
TIME_SYSTEM    = UTC
MEAN_ELEMENT_THEORY = SGP/SGP4

EPOCH          = 2026-03-10T03:17:11.537376
MEAN_MOTION    = 15.16910437
ECCENTRICITY   = .0031696
INCLINATION    = 97.5597
RA_OF_ASC_NODE = 114.0449
ARG_OF_PERICENTER = 265.6570
MEAN_ANOMALY   = 94.1041

EPHEMERIS_TYPE = 0
CLASSIFICATION_TYPE = U
NORAD_CAT_ID   = 29507
ELEMENT_SET_NO = 999
REV_AT_EPOCH   = 6011
BSTAR          = .30893E-3
MEAN_MOTION_DOT = .6097E-4
MEAN_MOTION_DDOT = 0

CCSDS_OMM_VERS = 2.0
CREATION_DATE  = 
ORIGINATOR     = 

OBJECT_NAME    = CZ-2C R/B
OBJECT_ID      = 2007-010B
CENTER_NAME    = EARTH
REF_FRAME      = TEME
TIME_SYSTEM    = UTC
MEAN_ELEMENT_THEORY = SGP/SGP4

EPOCH          = 2026-03-10T03:33:58.423104
MEAN_MOTION    = 14.20246342
ECCENTRICITY   = .0057939
INCLINATION    = 98.3979
RA_OF_ASC_NODE = 182.4043
ARG_OF_PERICENTER = 293.2424
MEAN_ANOMALY   = 66.2660

EPHEMERIS_TYPE = 0
CLASSIFICATION_TYPE = U
NORAD_CAT_ID   = 31114
ELEMENT_SET_NO = 999
REV_AT_EPOCH   = 97978
BSTAR          = .93767E-4
MEAN_MOTION_DOT = .162E-5
MEAN_MOTION_DDOT = 0

CCSDS_OMM_VERS = 2.0
CREATION_DATE  = 
ORIGINATOR     = 

OBJECT_NAME    = COSMO-SKYMED 1
OBJECT_ID      = 2007-023A
CENTER_NAME    = EARTH
REF_FRAME      = TEME
TIME_SYSTEM    = UTC
MEAN_ELEMENT_THEORY = SGP/SGP4

EPOCH          = 2026-03-10T04:47:05.871264
MEAN_MOTION    = 14.96539239
ECCENTRICITY   = .0001297
INCLINATION    = 97.8874
RA_OF_ASC_NODE = 260.2350
ARG_OF_PERICENTER = 100.0315
MEAN_ANOMALY   = 260.1052

EPHEMERIS_TYPE = 0
CLASSIFICATION_TYPE = U
NORAD_CAT_ID   = 31598
ELEMENT_SET_NO = 999
REV_AT_EPOCH   = 1498
BSTAR          = .38556E-3
MEAN_MOTION_DOT = .4326E-4
MEAN_MOTION_DDOT = 0

CCSDS_OMM_VERS = 2.0
CREATION_DATE  = 
ORIGINATOR     = 

OBJECT_NAME    = COSMOS 2428
OBJECT_ID      = 2007-029A
CENTER_NAME    = EARTH
REF_FRAME      = TEME
TIME_SYSTEM    = UTC
MEAN_ELEMENT_THEORY = SGP/SGP4

EPOCH          = 2026-03-10T04:07:30.141696
MEAN_MOTION    = 14.12946296
ECCENTRICITY   = .0009124
INCLINATION    = 70.9433
RA_OF_ASC_NODE = 202.3306
ARG_OF_PERICENTER = 276.4696
MEAN_ANOMALY   = 83.5386

EPHEMERIS_TYPE = 0
CLASSIFICATION_TYPE = U
NORAD_CAT_ID   = 31792
ELEMENT_SET_NO = 999
REV_AT_EPOCH   = 96416
BSTAR          = .6207E-4
MEAN_MOTION_DOT = .68E-6
MEAN_MOTION_DDOT = 0

CCSDS_OMM_VERS = 2.0
CREATION_DATE  = 
ORIGINATOR     = 

OBJECT_NAME    = SL-16 R/B
OBJECT_ID      = 2007-029B
CENTER_NAME    = EARTH
REF_FRAME      = TEME
TIME_SYSTEM    = UTC
MEAN_ELEMENT_THEORY = SGP/SGP4

EPOCH          = 2026-03-09T17:09:01.618848
MEAN_MOTION    = 14.14833325
ECCENTRICITY   = .00023077
INCLINATION    = 70.9759
RA_OF_ASC_NODE = 172.3325
ARG_OF_PERICENTER = 276.2204
MEAN_ANOMALY   = 193.3696

EPHEMERIS_TYPE = 0
CLASSIFICATION_TYPE = U
NORAD_CAT_ID   = 31793
ELEMENT_SET_NO = 999
REV_AT_EPOCH   = 96537
BSTAR          = .47723094E-4
MEAN_MOTION_DOT = .44E-6
MEAN_MOTION_DDOT = 0

CCSDS_OMM_VERS = 2.0
CREATION_DATE  = 
ORIGINATOR     = 

OBJECT_NAME    = KORONAS-FOTON
OBJECT_ID      = 2009-003A
CENTER_NAME    = EARTH
REF_FRAME      = TEME
TIME_SYSTEM    = UTC
MEAN_ELEMENT_THEORY = SGP/SGP4

EPOCH          = 2026-03-10T00:34:03.218304
MEAN_MOTION    = 15.43329428
ECCENTRICITY   = .0011332
INCLINATION    = 82.4278
RA_OF_ASC_NODE = 275.5305
ARG_OF_PERICENTER = 148.5286
MEAN_ANOMALY   = 211.6641

EPHEMERIS_TYPE = 0
CLASSIFICATION_TYPE = U
NORAD_CAT_ID   = 33504
ELEMENT_SET_NO = 999
REV_AT_EPOCH   = 94579
BSTAR          = .24919E-3
MEAN_MOTION_DOT = .11166E-3
MEAN_MOTION_DDOT = 0

CCSDS_OMM_VERS = 2.0
CREATION_DATE  = 
ORIGINATOR     = 

OBJECT_NAME    = CZ-2C R/B
OBJECT_ID      = 2011-030B
CENTER_NAME    = EARTH
REF_FRAME      = TEME
TIME_SYSTEM    = UTC
MEAN_ELEMENT_THEORY = SGP/SGP4

EPOCH          = 2026-03-09T21:09:37.668672
MEAN_MOTION    = 14.81223932
ECCENTRICITY   = .00523791
INCLINATION    = 97.8549
RA_OF_ASC_NODE = 26.1410
ARG_OF_PERICENTER = 351.4471
MEAN_ANOMALY   = 67.3026

EPHEMERIS_TYPE = 0
CLASSIFICATION_TYPE = U
NORAD_CAT_ID   = 37731
ELEMENT_SET_NO = 999
REV_AT_EPOCH   = 79012
BSTAR          = .28919779E-3
MEAN_MOTION_DOT = .2251E-4
MEAN_MOTION_DDOT = 0

CCSDS_OMM_VERS = 2.0
CREATION_DATE  = 
ORIGINATOR     = 

OBJECT_NAME    = H-2A R/B
OBJECT_ID      = 2012-025E
CENTER_NAME    = EARTH
REF_FRAME      = TEME
TIME_SYSTEM    = UTC
MEAN_ELEMENT_THEORY = SGP/SGP4

EPOCH          = 2026-03-09T20:41:54.522240
MEAN_MOTION    = 14.95172532
ECCENTRICITY   = .00433117
INCLINATION    = 98.4741
RA_OF_ASC_NODE = 35.9227
ARG_OF_PERICENTER = 313.9175
MEAN_ANOMALY   = 45.8471

EPHEMERIS_TYPE = 0
CLASSIFICATION_TYPE = U
NORAD_CAT_ID   = 38341
ELEMENT_SET_NO = 999
REV_AT_EPOCH   = 74824
BSTAR          = .44934548E-3
MEAN_MOTION_DOT = .4959E-4
MEAN_MOTION_DDOT = 0

CCSDS_OMM_VERS = 2.0
CREATION_DATE  = 
ORIGINATOR     = 

OBJECT_NAME    = SHIJIAN-16 (SJ-16)
OBJECT_ID      = 2013-057A
CENTER_NAME    = EARTH
REF_FRAME      = TEME
TIME_SYSTEM    = UTC
MEAN_ELEMENT_THEORY = SGP/SGP4

EPOCH          = 2026-03-10T03:58:06.057696
MEAN_MOTION    = 14.92354056
ECCENTRICITY   = .00154
INCLINATION    = 74.9735
RA_OF_ASC_NODE = 184.1873
ARG_OF_PERICENTER = 111.1568
MEAN_ANOMALY   = 249.1268

EPHEMERIS_TYPE = 0
CLASSIFICATION_TYPE = U
NORAD_CAT_ID   = 39358
ELEMENT_SET_NO = 999
REV_AT_EPOCH   = 67157
BSTAR          = .50241E-3
MEAN_MOTION_DOT = .5125E-4
MEAN_MOTION_DDOT = 0

CCSDS_OMM_VERS = 2.0
CREATION_DATE  = 
ORIGINATOR     = 

OBJECT_NAME    = SL-4 R/B
OBJECT_ID      = 2014-021B
CENTER_NAME    = EARTH
REF_FRAME      = TEME
TIME_SYSTEM    = UTC
MEAN_ELEMENT_THEORY = SGP/SGP4

EPOCH          = 2026-03-10T03:33:38.052576
MEAN_MOTION    = 15.39198695
ECCENTRICITY   = .0097453
INCLINATION    = 51.6079
RA_OF_ASC_NODE = 335.0419
ARG_OF_PERICENTER = 104.7108
MEAN_ANOMALY   = 256.4701

EPHEMERIS_TYPE = 0
CLASSIFICATION_TYPE = U
NORAD_CAT_ID   = 39679
ELEMENT_SET_NO = 999
REV_AT_EPOCH   = 65634
BSTAR          = .40816E-3
MEAN_MOTION_DOT = .18624E-3
MEAN_MOTION_DDOT = 0

