H-2A R/B                
1 28932U 06002B   26068.93910813  .00011556  00000+0  57793-3 0  9999
2 28932  98.2413 215.9838 0051895 240.1322 119.4746 15.16426804 94474
RESURS-DK 1             
1 29228U 06021A   26068.86609026  .00004119  00000+0  24045-3 0  9993
2 29228  69.9317 236.5664 0001872 163.0233 197.0996 15.12746011 87552
CZ-4B R/B               
1 29507U 06046C   26069.13693909  .00006097  00000+0  30893-3 0  9999
2 29507  97.5597 114.0449 0031696 265.6570  94.1041 15.16910437 60110
CZ-2C R/B               
1 31114U 07010B   26069.14859286  .00000162  00000+0  93767-4 0  9998
2 31114  98.3979 182.4043 0057939 293.2424  66.2660 14.20246342979782
COSMO-SKYMED 1          
1 31598U 07023A   26069.19937351  .00004326  00000+0  38556-3 0  9993
2 31598  97.8874 260.2350 0001297 100.0315 260.1052 14.96539239 14987
COSMOS 2428             
1 31792U 07029A   26069.17187664  .00000068  00000+0  62070-4 0  9995
2 31792  70.9433 202.3306 0009124 276.4696  83.5386 14.12946296964165
SL-16 R/B               
1 31793U 07029B   26068.71460207  .00000044  00000+0  47723-4 0  9994
2 31793  70.9759 172.3325 0002307 276.2204 193.3696 14.14833325965371
KORONAS-FOTON           
1 33504U 09003A   26069.02364836  .00011166  00000+0  24919-3 0  9994
2 33504  82.4278 275.5305 0011332 148.5286 211.6641 15.43329428945795
CZ-2C R/B               
1 37731U 11030B   26068.88168598  .00002251  00000+0  28920-3 0  9994
2 37731  97.8549  26.1410 0052379 351.4471  67.3026 14.81223932790128
H-2A R/B                
1 38341U 12025E   26068.86243660  .00004959  00000+0  44935-3 0  9990
2 38341  98.4741  35.9227 0043311 313.9175  45.8471 14.95172532748246
SHIJIAN-16 (SJ-16)      
1 39358U 13057A   26069.16534789  .00005125  00000+0  50241-3 0  9997
2 39358  74.9735 184.1873 0015400 111.1568 249.1268 14.92354056671577
SL-4 R/B                
1 39679U 14021B   26069.14835709  .00018624  00000+0  40816-3 0  9994
2 39679  51.6079 335.0419 0097453 104.7108 256.4701 15.39198695656343
